APRIZESAT 2             
1 28366U 04025A   26116.86524642  .00000172  00000+0  66144-4 0  9993
2 28366  98.0974 285.7628 0106487  45.5585 315.4254 14.38017589144267
SAUDICOMSAT 1           
1 28369U 04025D   26116.59318818  .00000373  00000+0  96581-4 0  9993
2 28369  98.5793 125.3306 0032173 179.3704 180.7538 14.55432732156626
SAUDICOMSAT 2           
1 28370U 04025E   26116.50790928  .00000384  00000+0  10972-3 0  9993
2 28370  98.6665 127.2895 0056434  56.7795 303.8790 14.49946404152617
APRIZESAT 1             
1 28372U 04025G   26116.74106383  .00000277  00000+0  80311-4 0  9993
2 28372  98.6325 126.0616 0043657 312.8063  46.9464 14.51750231154447
NANOSAT-1               
1 28493U 04049B   26116.58758263  .00001246  00000+0  17186-3 0  9991
2 28493  98.2195 252.0132 0005314  98.0674 262.1140 14.80052114147817
SAUDICOMSAT 7           
1 31119U 07012C   26116.37965771  .00000795  00000+0  15135-3 0  9994
2 31119  98.3746  89.4633 0055789   0.2570 359.8652 14.66049107 14848
SAUDICOMSAT 6           
1 31121U 07012E   26116.43681701  .00000569  00000+0  11812-3 0  9999
2 31121  98.4060  83.0073 0072836 127.2938 233.4932 14.62491062 12628
SAUDICOMSAT 5           
1 31124U 07012H   26116.62939867  .00000753  00000+0  13841-3 0  9991
2 31124  98.3458  90.4762 0046148 288.4582  71.1609 14.68094688 16036
SAUDICOMSAT 3           
1 31125U 07012J   26116.47478042  .00000771  00000+0  13424-3 0  9995
2 31125  98.3113  90.8735 0038338 213.9305 145.9448 14.70625895 17223
SAUDICOMSAT 4           
1 31127U 07012L   26116.36523766  .00000781  00000+0  15300-3 0  9995
2 31127  98.3950  87.8938 0064658  60.8768 299.8886 14.64444685 13704
APRIZESAT 4             
1 35684U 09041D   26116.73788301  .00000957  00000+0  12055-3 0  9999
2 35684  98.1423 191.0335 0044466 127.5357 232.9910 14.83799987903734
APRIZESAT 3             
1 35686U 09041F   26116.66868249  .00001412  00000+0  12708-3 0  9995
2 35686  98.1994 267.4506 0060924 236.6528 122.8851 14.96060223908673
S-NET D                 
1 43186U 18014G   26116.86029301  .00005461  00000+0  28619-3 0  9995
2 43186  97.5402  21.9808 0007963 183.6496 176.4680 15.16179721450989
S-NET B                 
1 43187U 18014H   26116.73874950  .00006509  00000+0  34061-3 0  9992
2 43187  97.5405  21.8452 0008715 180.5493 179.5731 15.16150520450961
S-NET A                 
1 43188U 18014J   26116.72742449  .00006078  00000+0  31797-3 0  9993
2 43188  97.5417  22.0332 0008565 181.1364 178.9850 15.16186351450968
S-NET C                 
1 43189U 18014K   26116.74234072  .00006498  00000+0  34001-3 0  9991
2 43189  97.5433  22.1146 0010197 175.5693 184.5632 15.16141683449516
SALSAT                  
1 46495U 20068K   26116.45847697  .00009547  00000+0  34104-3 0  9999
2 46495  97.8864 116.4064 0011542 119.6725 240.5665 15.29015639307456
