[{"OBJECT_NAME":"APRIZESAT 2","OBJECT_ID":"2004-025A","EPOCH":"2026-04-26T20:45:57.290688","MEAN_MOTION":14.38017589,"ECCENTRICITY":0.0106487,"INCLINATION":98.0974,"RA_OF_ASC_NODE":285.7628,"ARG_OF_PERICENTER":45.5585,"MEAN_ANOMALY":315.4254,"EPHEMERIS_TYPE":0,"CLASSIFICATION_TYPE":"U","NORAD_CAT_ID":28366,"ELEMENT_SET_NO":999,"REV_AT_EPOCH":14426,"BSTAR":6.6144e-5,"MEAN_MOTION_DOT":1.72e-6,"MEAN_MOTION_DDOT":0},{"OBJECT_NAME":"SAUDICOMSAT 1","OBJECT_ID":"2004-025D","EPOCH":"2026-04-26T14:14:11.458752","MEAN_MOTION":14.55432732,"ECCENTRICITY":0.0032173,"INCLINATION":98.5793,"RA_OF_ASC_NODE":125.3306,"ARG_OF_PERICENTER":179.3704,"MEAN_ANOMALY":180.7538,"EPHEMERIS_TYPE":0,"CLASSIFICATION_TYPE":"U","NORAD_CAT_ID":28369,"ELEMENT_SET_NO":999,"REV_AT_EPOCH":15662,"BSTAR":9.6581e-5,"MEAN_MOTION_DOT":3.73e-6,"MEAN_MOTION_DDOT":0},{"OBJECT_NAME":"SAUDICOMSAT 2","OBJECT_ID":"2004-025E","EPOCH":"2026-04-26T12:11:23.361792","MEAN_MOTION":14.49946404,"ECCENTRICITY":0.00564343,"INCLINATION":98.6665,"RA_OF_ASC_NODE":127.2895,"ARG_OF_PERICENTER":56.7795,"MEAN_ANOMALY":303.879,"EPHEMERIS_TYPE":0,"CLASSIFICATION_TYPE":"U","NORAD_CAT_ID":28370,"ELEMENT_SET_NO":999,"REV_AT_EPOCH":15261,"BSTAR":0.00010971691,"MEAN_MOTION_DOT":3.84e-6,"MEAN_MOTION_DDOT":0},{"OBJECT_NAME":"APRIZESAT 1","OBJECT_ID":"2004-025G","EPOCH":"2026-04-26T17:47:07.914912","MEAN_MOTION":14.51750231,"ECCENTRICITY":0.0043657,"INCLINATION":98.6325,"RA_OF_ASC_NODE":126.0616,"ARG_OF_PERICENTER":312.8063,"MEAN_ANOMALY":46.9464,"EPHEMERIS_TYPE":0,"CLASSIFICATION_TYPE":"U","NORAD_CAT_ID":28372,"ELEMENT_SET_NO":999,"REV_AT_EPOCH":15444,"BSTAR":8.0311e-5,"MEAN_MOTION_DOT":2.77e-6,"MEAN_MOTION_DDOT":0},{"OBJECT_NAME":"NANOSAT-1","OBJECT_ID":"2004-049B","EPOCH":"2026-04-26T14:06:07.139232","MEAN_MOTION":14.80052114,"ECCENTRICITY":0.0005314,"INCLINATION":98.2195,"RA_OF_ASC_NODE":252.0132,"ARG_OF_PERICENTER":98.0674,"MEAN_ANOMALY":262.114,"EPHEMERIS_TYPE":0,"CLASSIFICATION_TYPE":"U","NORAD_CAT_ID":28493,"ELEMENT_SET_NO":999,"REV_AT_EPOCH":14781,"BSTAR":0.00017186,"MEAN_MOTION_DOT":1.246e-5,"MEAN_MOTION_DDOT":0},{"OBJECT_NAME":"SAUDICOMSAT 7","OBJECT_ID":"2007-012C","EPOCH":"2026-04-26T09:06:42.426144","MEAN_MOTION":14.66049107,"ECCENTRICITY":0.00557891,"INCLINATION":98.3746,"RA_OF_ASC_NODE":89.4633,"ARG_OF_PERICENTER":0.257,"MEAN_ANOMALY":359.8652,"EPHEMERIS_TYPE":0,"CLASSIFICATION_TYPE":"U","NORAD_CAT_ID":31119,"ELEMENT_SET_NO":999,"REV_AT_EPOCH":1484,"BSTAR":0.00015135267,"MEAN_MOTION_DOT":7.95e-6,"MEAN_MOTION_DDOT":0},{"OBJECT_NAME":"SAUDICOMSAT 6","OBJECT_ID":"2007-012E","EPOCH":"2026-04-26T10:29:00.989664","MEAN_MOTION":14.62491062,"ECCENTRICITY":0.00728365,"INCLINATION":98.406,"RA_OF_ASC_NODE":83.0073,"ARG_OF_PERICENTER":127.2938,"MEAN_ANOMALY":233.4932,"EPHEMERIS_TYPE":0,"CLASSIFICATION_TYPE":"U","NORAD_CAT_ID":31121,"ELEMENT_SET_NO":999,"REV_AT_EPOCH":1262,"BSTAR":0.00011811673,"MEAN_MOTION_DOT":5.69e-6,"MEAN_MOTION_DDOT":0},{"OBJECT_NAME":"SAUDICOMSAT 5","OBJECT_ID":"2007-012H","EPOCH":"2026-04-26T15:06:20.045088","MEAN_MOTION":14.68094688,"ECCENTRICITY":0.00461485,"INCLINATION":98.3458,"RA_OF_ASC_NODE":90.4762,"ARG_OF_PERICENTER":288.4582,"MEAN_ANOMALY":71.1609,"EPHEMERIS_TYPE":0,"CLASSIFICATION_TYPE":"U","NORAD_CAT_ID":31124,"ELEMENT_SET_NO":999,"REV_AT_EPOCH":1603,"BSTAR":0.00013841164,"MEAN_MOTION_DOT":7.53e-6,"MEAN_MOTION_DDOT":0},{"OBJECT_NAME":"SAUDICOMSAT 3","OBJECT_ID":"2007-012J","EPOCH":"2026-04-26T11:23:41.028288","MEAN_MOTION":14.70625895,"ECCENTRICITY":0.00383389,"INCLINATION":98.3113,"RA_OF_ASC_NODE":90.8735,"ARG_OF_PERICENTER":213.9305,"MEAN_ANOMALY":145.9448,"EPHEMERIS_TYPE":0,"CLASSIFICATION_TYPE":"U","NORAD_CAT_ID":31125,"ELEMENT_SET_NO":999,"REV_AT_EPOCH":1722,"BSTAR":0.00013423501,"MEAN_MOTION_DOT":7.71e-6,"MEAN_MOTION_DDOT":0},{"OBJECT_NAME":"SAUDICOMSAT 4","OBJECT_ID":"2007-012L","EPOCH":"2026-04-26T08:45:56.533824","MEAN_MOTION":14.64444685,"ECCENTRICITY":0.00646581,"INCLINATION":98.395,"RA_OF_ASC_NODE":87.8938,"ARG_OF_PERICENTER":60.8768,"MEAN_ANOMALY":299.8886,"EPHEMERIS_TYPE":0,"CLASSIFICATION_TYPE":"U","NORAD_CAT_ID":31127,"ELEMENT_SET_NO":999,"REV_AT_EPOCH":1370,"BSTAR":0.00015299695,"MEAN_MOTION_DOT":7.81e-6,"MEAN_MOTION_DDOT":0},{"OBJECT_NAME":"APRIZESAT 4","OBJECT_ID":"2009-041D","EPOCH":"2026-04-26T17:42:33.092064","MEAN_MOTION":14.83799987,"ECCENTRICITY":0.0044466,"INCLINATION":98.1423,"RA_OF_ASC_NODE":191.0335,"ARG_OF_PERICENTER":127.5357,"MEAN_ANOMALY":232.991,"EPHEMERIS_TYPE":0,"CLASSIFICATION_TYPE":"U","NORAD_CAT_ID":35684,"ELEMENT_SET_NO":999,"REV_AT_EPOCH":90373,"BSTAR":0.00012055,"MEAN_MOTION_DOT":9.57e-6,"MEAN_MOTION_DDOT":0},{"OBJECT_NAME":"APRIZESAT 3","OBJECT_ID":"2009-041F","EPOCH":"2026-04-26T16:02:54.167136","MEAN_MOTION":14.96060223,"ECCENTRICITY":0.0060924,"INCLINATION":98.1994,"RA_OF_ASC_NODE":267.4506,"ARG_OF_PERICENTER":236.6528,"MEAN_ANOMALY":122.8851,"EPHEMERIS_TYPE":0,"CLASSIFICATION_TYPE":"U","NORAD_CAT_ID":35686,"ELEMENT_SET_NO":999,"REV_AT_EPOCH":90867,"BSTAR":0.00012708,"MEAN_MOTION_DOT":1.412e-5,"MEAN_MOTION_DDOT":0},{"OBJECT_NAME":"S-NET D","OBJECT_ID":"2018-014G","EPOCH":"2026-04-26T20:38:49.316064","MEAN_MOTION":15.16179721,"ECCENTRICITY":0.0007963,"INCLINATION":97.5402,"RA_OF_ASC_NODE":21.9808,"ARG_OF_PERICENTER":183.6496,"MEAN_ANOMALY":176.468,"EPHEMERIS_TYPE":0,"CLASSIFICATION_TYPE":"U","NORAD_CAT_ID":43186,"ELEMENT_SET_NO":999,"REV_AT_EPOCH":45098,"BSTAR":0.00028619,"MEAN_MOTION_DOT":5.461e-5,"MEAN_MOTION_DDOT":0},{"OBJECT_NAME":"S-NET B","OBJECT_ID":"2018-014H","EPOCH":"2026-04-26T17:43:47.956800","MEAN_MOTION":15.1615052,"ECCENTRICITY":0.0008715,"INCLINATION":97.5405,"RA_OF_ASC_NODE":21.8452,"ARG_OF_PERICENTER":180.5493,"MEAN_ANOMALY":179.5731,"EPHEMERIS_TYPE":0,"CLASSIFICATION_TYPE":"U","NORAD_CAT_ID":43187,"ELEMENT_SET_NO":999,"REV_AT_EPOCH":45096,"BSTAR":0.00034061,"MEAN_MOTION_DOT":6.509e-5,"MEAN_MOTION_DDOT":0},{"OBJECT_NAME":"S-NET A","OBJECT_ID":"2018-014J","EPOCH":"2026-04-26T17:27:29.475936","MEAN_MOTION":15.16186351,"ECCENTRICITY":0.0008565,"INCLINATION":97.5417,"RA_OF_ASC_NODE":22.0332,"ARG_OF_PERICENTER":181.1364,"MEAN_ANOMALY":178.985,"EPHEMERIS_TYPE":0,"CLASSIFICATION_TYPE":"U","NORAD_CAT_ID":43188,"ELEMENT_SET_NO":999,"REV_AT_EPOCH":45096,"BSTAR":0.00031797,"MEAN_MOTION_DOT":6.078e-5,"MEAN_MOTION_DDOT":0},{"OBJECT_NAME":"S-NET C","OBJECT_ID":"2018-014K","EPOCH":"2026-04-26T17:48:58.238208","MEAN_MOTION":15.16141683,"ECCENTRICITY":0.0010197,"INCLINATION":97.5433,"RA_OF_ASC_NODE":22.1146,"ARG_OF_PERICENTER":175.5693,"MEAN_ANOMALY":184.5632,"EPHEMERIS_TYPE":0,"CLASSIFICATION_TYPE":"U","NORAD_CAT_ID":43189,"ELEMENT_SET_NO":999,"REV_AT_EPOCH":44951,"BSTAR":0.00034001,"MEAN_MOTION_DOT":6.498e-5,"MEAN_MOTION_DDOT":0},{"OBJECT_NAME":"SALSAT","OBJECT_ID":"2020-068K","EPOCH":"2026-04-26T11:00:12.410208","MEAN_MOTION":15.29015639,"ECCENTRICITY":0.00115423,"INCLINATION":97.8864,"RA_OF_ASC_NODE":116.4064,"ARG_OF_PERICENTER":119.6725,"MEAN_ANOMALY":240.5665,"EPHEMERIS_TYPE":0,"CLASSIFICATION_TYPE":"U","NORAD_CAT_ID":46495,"ELEMENT_SET_NO":999,"REV_AT_EPOCH":30745,"BSTAR":0.00034104261,"MEAN_MOTION_DOT":9.547e-5,"MEAN_MOTION_DDOT":0}]
